{
  "type": "FeatureCollection",
  "note": "Simplified Turkish maritime area polygons for point-in-area classification. Listed most-specific first; not for navigation.",
  "features": [
    { "type": "Feature", "properties": { "name": "İstanbul Boğazı" },
      "geometry": { "type": "Polygon", "coordinates": [[[28.94,40.97],[28.94,41.27],[29.24,41.30],[29.24,40.97],[28.94,40.97]]] } },
    { "type": "Feature", "properties": { "name": "Çanakkale Boğazı" },
      "geometry": { "type": "Polygon", "coordinates": [[[26.08,39.93],[26.08,40.55],[26.80,40.55],[26.80,39.93],[26.08,39.93]]] } },
    { "type": "Feature", "properties": { "name": "Saros Körfezi" },
      "geometry": { "type": "Polygon", "coordinates": [[[26.05,40.28],[26.05,40.72],[26.82,40.74],[26.82,40.28],[26.05,40.28]]] } },
    { "type": "Feature", "properties": { "name": "Gökova Körfezi" },
      "geometry": { "type": "Polygon", "coordinates": [[[27.28,36.82],[27.28,37.15],[28.35,37.15],[28.35,36.82],[27.28,36.82]]] } },
    { "type": "Feature", "properties": { "name": "İzmit Körfezi" },
      "geometry": { "type": "Polygon", "coordinates": [[[29.30,40.60],[29.30,40.83],[30.05,40.83],[30.05,40.60],[29.30,40.60]]] } },
    { "type": "Feature", "properties": { "name": "Marmara Denizi" },
      "geometry": { "type": "Polygon", "coordinates": [[[26.72,40.34],[27.00,41.05],[28.10,41.12],[28.95,41.10],[29.10,40.72],[28.60,40.45],[27.60,40.30],[26.90,40.28],[26.72,40.34]]] } },
    { "type": "Feature", "properties": { "name": "Kuzey Ege" },
      "geometry": { "type": "Polygon", "coordinates": [[[24.60,38.90],[24.60,40.55],[26.55,40.10],[27.25,39.30],[26.95,38.55],[25.60,38.55],[24.60,38.90]]] } },
    { "type": "Feature", "properties": { "name": "Orta Ege" },
      "geometry": { "type": "Polygon", "coordinates": [[[24.60,37.55],[24.60,38.90],[26.95,38.55],[27.60,37.75],[27.15,37.30],[25.40,37.30],[24.60,37.55]]] } },
    { "type": "Feature", "properties": { "name": "Güney Ege" },
      "geometry": { "type": "Polygon", "coordinates": [[[24.60,35.90],[24.60,37.55],[27.15,37.30],[28.35,36.85],[28.70,36.25],[27.20,35.85],[25.50,35.85],[24.60,35.90]]] } },
    { "type": "Feature", "properties": { "name": "Antalya Körfezi" },
      "geometry": { "type": "Polygon", "coordinates": [[[29.55,36.05],[29.55,37.00],[31.60,37.00],[31.65,36.15],[30.55,35.90],[29.55,36.05]]] } },
    { "type": "Feature", "properties": { "name": "Batı Akdeniz" },
      "geometry": { "type": "Polygon", "coordinates": [[[28.55,35.70],[28.55,36.65],[29.95,36.60],[30.05,35.75],[29.30,35.50],[28.55,35.70]]] } },
    { "type": "Feature", "properties": { "name": "Mersin–İskenderun Körfezi" },
      "geometry": { "type": "Polygon", "coordinates": [[[32.10,35.80],[32.10,37.10],[36.25,37.10],[36.60,36.55],[35.95,35.80],[33.50,35.70],[32.10,35.80]]] } },
    { "type": "Feature", "properties": { "name": "Batı Karadeniz" },
      "geometry": { "type": "Polygon", "coordinates": [[[27.30,41.30],[27.30,43.45],[33.00,43.45],[33.00,41.35],[31.00,41.10],[28.60,41.18],[27.30,41.30]]] } },
    { "type": "Feature", "properties": { "name": "Orta Karadeniz" },
      "geometry": { "type": "Polygon", "coordinates": [[[33.00,41.35],[33.00,43.45],[37.50,43.25],[37.50,41.15],[35.20,41.05],[33.00,41.35]]] } },
    { "type": "Feature", "properties": { "name": "Doğu Karadeniz" },
      "geometry": { "type": "Polygon", "coordinates": [[[37.50,41.10],[37.50,43.25],[42.30,42.65],[42.30,41.15],[40.00,41.00],[37.50,41.10]]] } }
  ]
}
